[{"OBJECT_NAME":"STARLINK-5592","OBJECT_ID":"2023-028A","EPOCH":"2026-03-09T22:22:42.987072","MEAN_MOTION":14.98334271,"ECCENTRICITY":0.00031442,"INCLINATION":69.999,"RA_OF_ASC_NODE":243.9567,"ARG_OF_PERICENTER":269.1505,"MEAN_ANOMALY":90.9294,"EPHEMERIS_TYPE":0,"CLASSIFICATION_TYPE":"U","NORAD_CAT_ID":55741,"ELEMENT_SET_NO":999,"REV_AT_EPOCH":16626,"BSTAR":9.787649e-6,"MEAN_MOTION_DOT":2.4e-7,"MEAN_MOTION_DDOT":0},{"OBJECT_NAME":"CZ-6A DEB","OBJECT_ID":"2024-140FD","EPOCH":"2026-03-09T14:27:44.906112","MEAN_MOTION":14.99694865,"ECCENTRICITY":0.0039811,"INCLINATION":89.0027,"RA_OF_ASC_NODE":280.8171,"ARG_OF_PERICENTER":188.2594,"MEAN_ANOMALY":171.7991,"EPHEMERIS_TYPE":0,"CLASSIFICATION_TYPE":"U","NORAD_CAT_ID":60778,"ELEMENT_SET_NO":999,"REV_AT_EPOCH":8450,"BSTAR":0.0048584,"MEAN_MOTION_DOT":0.00061368,"MEAN_MOTION_DDOT":0}]
